HIERARCHY
ROOT hip
{
    OFFSET 0.00 0.00 0.00
    CHANNELS 6 Xposition Yposition Zposition Zrotation Xrotation Yrotation
    JOINT spine
    {
        OFFSET 0.00 0.10 0.00
        CHANNELS 3 Zrotation Xrotation Yrotation
        JOINT neck
        {
            OFFSET 0.00 0.40 0.00
            CHANNELS 3 Zrotation Xrotation Yrotation
            JOINT head
            {
                OFFSET 0.00 0.10 0.00
                CHANNELS 3 Zrotation Xrotation Yrotation
                End Site
                {
                    OFFSET 0.00 0.20 0.00
                }
            }
        }
        JOINT left_shoulder
        {
            OFFSET 0.10 0.35 0.00
            CHANNELS 3 Zrotation Xrotation Yrotation
            End Site
            {
                OFFSET 0.20 0.00 0.00
            }
        }
        JOINT right_shoulder
        {
            OFFSET -0.10 0.35 0.00
            CHANNELS 3 Zrotation Xrotation Yrotation
            End Site
            {
                OFFSET -0.20 0.00 0.00
            }
        }
    }
}
MOTION
Frames: 5
Frame Time: 0.166667
0.00 1.00 0.00 0.00 0.00 0.00 0.00 0.00 0.00 0.00 0.00 0.00 0.00 0.00 0.00 0.00 0.00 0.00 0.00 0.00 0.00
0.00 1.00 0.00 0.00 0.00 0.00 0.00 0.00 0.00 0.00 0.00 0.00 0.00 0.00 0.00 0.00 0.00 0.00 0.00 0.00 -90.00
0.00 1.00 0.00 0.00 0.00 0.00 0.00 0.00 0.00 0.00 0.00 0.00 0.00 0.00 0.00 0.00 0.00 20.00 0.00 0.00 -90.00
0.00 1.00 0.00 0.00 0.00 0.00 0.00 0.00 0.00 0.00 0.00 0.00 0.00 0.00 0.00 0.00 0.00 -20.00 0.00 0.00 -90.00
0.00 1.00 0.00 0.00 0.00 0.00 0.00 0.00 0.00 0.00 0.00 0.00 0.00 0.00 0.00 0.00 0.00 0.00 0.00 0.00 0.00
